IRIDIUM 154             
1 43574U 18061F   26167.60368348  .00000186  00000+0  59305-4 0  9999
2 43574  86.3960  57.0508 0002127  87.4407 272.7032 14.34216459413329
IRIDIUM 163             
1 43575U 18061G   26167.44511783  .00000053  00000+0  11892-4 0  9997
2 43575  86.3960  57.0325 0002247  84.0968 276.0484 14.34216397413278
IRIDIUM 156             
1 43576U 18061H   26167.41975037  .00000102  00000+0  29468-4 0  9994
2 43576  86.3959  57.0504 0002034  82.1106 278.0321 14.34217735413261
IRIDIUM 164             
1 43577U 18061J   26167.40072148  .00000128  00000+0  38515-4 0  9996
2 43577  86.3961  57.0986 0002097  89.0182 271.1254 14.34218643413301
IRIDIUM 159             
1 43578U 18061K   26167.43877916  .00000075  00000+0  19696-4 0  9996
2 43578  86.3960  57.0196 0002278  83.7030 276.4425 14.34217681413273
IRIDIUM 180             
1 43922U 19002A   26167.57781002  .00000184  00000+0  58677-4 0  9993
2 43922  86.3971 353.8524 0002245  88.7725 271.3728 14.34218945388905
IRIDIUM 176             
1 43923U 19002B   26167.54723077  .00000632  00000+0  96280-4 0  9999
2 43923  86.6090 353.8087 0002270  92.4555 267.6922 14.72266322399153
IRIDIUM 168             
1 43924U 19002C   26167.57146757  .00000053  00000+0  11957-4 0  9992
2 43924  86.3973 353.9323 0002166  88.9431 271.2013 14.34218392388884
IRIDIUM 173             
1 43925U 19002D   26167.55878222  .00000140  00000+0  42908-4 0  9997
2 43925  86.3970 353.8265 0002195  87.4429 272.7018 14.34218762388869
IRIDIUM 169             
1 43926U 19002E   26167.55668662  .00000230  00000+0  68526-4 0  9997
2 43926  86.4224  25.4571 0001876  72.4944 287.6459 14.38608713390136
IRIDIUM 172             
1 43927U 19002F   26167.55244000  .00000140  00000+0  42829-4 0  9992
2 43927  86.3969 353.8371 0002245  88.6934 271.4519 14.34218289388874
IRIDIUM 175             
1 43928U 19002G   26167.37474996  .00000271  00000+0  73956-4 0  9992
2 43928  86.4511 290.8605 0002389 181.7008 178.4185 14.43612318398861
IRIDIUM 171             
1 43929U 19002H   26167.60318144  .00000140  00000+0  42930-4 0  9994
2 43929  86.3978 354.1220 0002045  90.6324 269.5106 14.34218053388876
IRIDIUM 170             
1 43930U 19002J   26167.55341151  .00000632  00000+0  96242-4 0  9995
2 43930  86.6090 353.8086 0002349  89.0139 271.1347 14.72266803399163
IRIDIUM 167             
1 43931U 19002K   26167.59683849  .00000014  00000+0 -21886-5 0  9991
2 43931  86.3966 353.8409 0001766  91.4531 268.6867 14.34217653388878
IRIDIUM 181             
1 56726U 23068S   26167.41315952  .00000317  00000+0  88189-4 0  9995
2 56726  86.4499  57.1140 0002348  88.6689 271.4780 14.43312166162322
IRIDIUM 177             
1 56727U 23068T   26167.44375512  .00000910  00000+0  11622-3 0  9993
2 56727  86.1961 329.1445 0002364  87.0605 273.0887 14.80229186166255
IRIDIUM 174             
1 56728U 23068U   26167.54107331  .00000650  00000+0  99228-4 0  9997
2 56728  86.6098 353.9611 0002462  84.0328 276.1170 14.72263140165921
IRIDIUM 178             
1 56729U 23068V   26167.56809259  .00000796  00000+0  10126-3 0  9998
2 56729  86.6538  25.6190 0002634  85.9533 274.1990 14.80232762166277
IRIDIUM 179             
1 56730U 23068W   26167.56269094  .00000720  00000+0  91262-4 0  9995
2 56730  86.6779  34.5993 0002425  89.0006 271.1493 14.80236028166278
