OBJECT_NAME,OBJECT_ID,EPOCH,MEAN_MOTION,ECCENTRICITY,INCLINATION,RA_OF_ASC_NODE,ARG_OF_PERICENTER,MEAN_ANOMALY,EPHEMERIS_TYPE,CLASSIFICATION_TYPE,NORAD_CAT_ID,ELEMENT_SET_NO,REV_AT_EPOCH,BSTAR,MEAN_MOTION_DOT,MEAN_MOTION_DDOT
IRIDIUM 154,2018-061F,2026-06-16T14:29:18.252672,14.34216459,.0002127,86.3960,57.0508,87.4407,272.7032,0,U,43574,999,41332,.59305288E-4,.186E-5,0
IRIDIUM 163,2018-061G,2026-06-16T10:40:58.180512,14.34216397,.00022474,86.3960,57.0325,84.0968,276.0484,0,U,43575,999,41327,.1189217E-4,.53E-6,0
IRIDIUM 156,2018-061H,2026-06-16T10:04:26.431968,14.34217735,.0002034,86.3959,57.0504,82.1106,278.0321,0,U,43576,999,41326,.29468389E-4,.102E-5,0
IRIDIUM 164,2018-061J,2026-06-16T09:37:02.335872,14.34218643,.00020975,86.3961,57.0986,89.0182,271.1254,0,U,43577,999,41330,.38514624E-4,.128E-5,0
IRIDIUM 159,2018-061K,2026-06-16T10:31:50.519424,14.34217681,.00022786,86.3960,57.0196,83.7030,276.4425,0,U,43578,999,41327,.19696228E-4,.75E-6,0
IRIDIUM 180,2019-002A,2026-06-16T13:52:02.785728,14.34218945,.00022457,86.3971,353.8524,88.7725,271.3728,0,U,43922,999,38890,.58677237E-4,.184E-5,0
IRIDIUM 176,2019-002B,2026-06-16T13:08:00.738528,14.72266322,.00022703,86.6090,353.8087,92.4555,267.6922,0,U,43923,999,39915,.96279819E-4,.632E-5,0
IRIDIUM 168,2019-002C,2026-06-16T13:42:54.798048,14.34218392,.00021664,86.3973,353.9323,88.9431,271.2013,0,U,43924,999,38888,.11956758E-4,.53E-6,0
IRIDIUM 173,2019-002D,2026-06-16T13:24:38.783808,14.34218762,.00021953,86.3970,353.8265,87.4429,272.7018,0,U,43925,999,38886,.42908151E-4,.14E-5,0
IRIDIUM 169,2019-002E,2026-06-16T13:21:37.723968,14.38608713,.00018764,86.4224,25.4571,72.4944,287.6459,0,U,43926,999,39013,.68526189E-4,.23E-5,0
IRIDIUM 172,2019-002F,2026-06-16T13:15:30.816000,14.34218289,.00022455,86.3969,353.8371,88.6934,271.4519,0,U,43927,999,38887,.42828643E-4,.14E-5,0
IRIDIUM 175,2019-002G,2026-06-16T08:59:38.396544,14.43612318,.00023892,86.4511,290.8605,181.7008,178.4185,0,U,43928,999,39886,.73955559E-4,.271E-5,0
IRIDIUM 171,2019-002H,2026-06-16T14:28:34.876416,14.34218053,.00020452,86.3978,354.1220,90.6324,269.5106,0,U,43929,999,38887,.4293015E-4,.14E-5,0
IRIDIUM 170,2019-002J,2026-06-16T13:16:54.754464,14.72266803,.00023497,86.6090,353.8086,89.0139,271.1347,0,U,43930,999,39916,.96241698E-4,.632E-5,0
IRIDIUM 167,2019-002K,2026-06-16T14:19:26.845536,14.34217653,.00017664,86.3966,353.8409,91.4531,268.6867,0,U,43931,999,38887,-.2188596E-5,.14E-6,0
IRIDIUM 181,2023-068S,2026-06-16T09:54:56.982528,14.43312166,.00023482,86.4499,57.1140,88.6689,271.4780,0,U,56726,999,16232,.88188513E-4,.317E-5,0
IRIDIUM 177,2023-068T,2026-06-16T10:39:00.442368,14.80229186,.00023644,86.1961,329.1445,87.0605,273.0887,0,U,56727,999,16625,.11621984E-3,.91E-5,0
IRIDIUM 174,2023-068U,2026-06-16T12:59:08.733984,14.72263140,.00024626,86.6098,353.9611,84.0328,276.1170,0,U,56728,999,16592,.99228168E-4,.65E-5,0
IRIDIUM 178,2023-068V,2026-06-16T13:38:03.199776,14.80232762,.00026342,86.6538,25.6190,85.9533,274.1990,0,U,56729,999,16627,.10126459E-3,.796E-5,0
IRIDIUM 179,2023-068W,2026-06-16T13:30:16.497216,14.80236028,.00024256,86.6779,34.5993,89.0006,271.1493,0,U,56730,999,16627,.91262388E-4,.72E-5,0
